[{"OBJECT_NAME":"STARLINK-5011","OBJECT_ID":"2022-119AR","EPOCH":"2026-03-09T21:47:57.243552","MEAN_MOTION":15.0882433,"ECCENTRICITY":0.00010101,"INCLINATION":53.2185,"RA_OF_ASC_NODE":312.7417,"ARG_OF_PERICENTER":75.2053,"MEAN_ANOMALY":284.9051,"EPHEMERIS_TYPE":0,"CLASSIFICATION_TYPE":"U","NORAD_CAT_ID":53925,"ELEMENT_SET_NO":999,"REV_AT_EPOCH":19186,"BSTAR":0.00014535131,"MEAN_MOTION_DOT":2.025e-5,"MEAN_MOTION_DDOT":0},{"OBJECT_NAME":"NOAA 17 DEB","OBJECT_ID":"2002-032W","EPOCH":"2026-03-09T23:34:50.358720","MEAN_MOTION":15.06684432,"ECCENTRICITY":0.0012716,"INCLINATION":98.7039,"RA_OF_ASC_NODE":76.0065,"ARG_OF_PERICENTER":104.6864,"MEAN_ANOMALY":255.577,"EPHEMERIS_TYPE":0,"CLASSIFICATION_TYPE":"U","NORAD_CAT_ID":48181,"ELEMENT_SET_NO":999,"REV_AT_EPOCH":26088,"BSTAR":0.0078736038,"MEAN_MOTION_DOT":0.00118919,"MEAN_MOTION_DDOT":0}]
